OBJECT_NAME,OBJECT_ID,EPOCH,MEAN_MOTION,ECCENTRICITY,INCLINATION,RA_OF_ASC_NODE,ARG_OF_PERICENTER,MEAN_ANOMALY,EPHEMERIS_TYPE,CLASSIFICATION_TYPE,NORAD_CAT_ID,ELEMENT_SET_NO,REV_AT_EPOCH,BSTAR,MEAN_MOTION_DOT,MEAN_MOTION_DDOT
CUTE-1 (CO-55),2003-031E,2026-05-13T11:23:50.019072,14.24313421,.0008333,98.6747,142.4698,288.8739,71.1536,0,U,27844,999,18673,.10262E-3,.193E-5,0
CUBESAT XI-IV (CO-57),2003-031J,2026-05-13T12:23:24.554688,14.23601563,.0008438,98.6778,142.2511,309.7556,50.2879,0,U,27848,999,18644,.92066E-4,.166E-5,0
CUBESAT XI-V,2005-043F,2026-05-13T09:49:01.644384,14.72536322,.0013121,98.2946,288.3105,319.7744,40.2490,0,U,28895,999,9663,.13289E-3,.792E-5,0
CUTE-1.7+APD II (CO-65),2008-021C,2026-05-13T20:09:18.955872,15.09111298,.0010067,97.8259,114.5575,137.6761,222.5246,0,U,32785,999,98001,.20423E-3,.3175E-4,0
CANX-2,2008-021H,2026-05-13T11:02:51.483840,15.05361840,.0011235,97.8625,112.5755,151.8484,208.3351,0,U,32790,999,97958,.14187E-3,.197E-4,0
SEEDS II (CO-66),2008-021J,2026-05-13T12:29:32.051040,15.31529848,.0004988,97.7522,129.7991,83.2140,276.9668,0,U,32791,999,98198,.37469E-3,.11334E-3,0
SWISSCUBE,2009-051B,2026-05-13T04:57:21.263040,14.62411053,.0006178,98.4058,40.4838,333.2561,26.8321,0,U,35932,999,88404,.13125E-3,.614E-5,0
BEESAT-1,2009-051C,2026-05-13T12:57:48.538368,14.61661113,.0005015,98.3987,40.5309,350.4158,9.6946,0,U,35933,999,88412,.11264E-3,.511E-5,0
ITUPSAT1,2009-051E,2026-05-13T16:57:05.318784,14.60386079,.0007405,98.4071,39.9277,356.5944,3.5204,0,U,35935,999,88370,.10616E-3,.465E-5,0
TISAT 1,2010-035E,2026-05-13T08:18:35.820288,15.30347916,.0003488,98.0691,76.8483,52.2159,307.9396,0,U,36799,999,86237,.42092E-3,.12278E-3,0
AEROCUBE 4.5A,2012-048K,2026-05-13T09:36:31.923936,15.77906015,.0019057,64.6289,152.2600,216.8530,143.1315,0,U,38767,999,36714,.69699E-3,.121316E-2,0
STRAND-1,2013-009E,2026-05-13T10:53:23.029728,14.37141977,.0008166,98.3916,314.5447,343.0038,17.0874,0,U,39090,999,69207,.73686E-4,.176E-5,0
BRITE-AUSTRIA,2013-009F,2026-05-13T10:50:27.342240,14.36527680,.0009899,98.3988,313.7488,350.9654,9.1353,0,U,39091,999,69206,.49498E-4,.103E-5,0
NEE-01 PEGASO,2013-018B,2026-05-13T08:40:10.227072,14.93483981,.0011281,98.1178,276.3748,279.5915,80.4029,0,U,39151,999,70550,.14717E-3,.1488E-4,0
POPACS 2,2013-055E,2026-05-13T13:01:49.667808,14.90416576,.0419175,80.9929,183.8279,305.2468,51.0182,0,U,39269,999,65805,.16618E-3,.9675E-4,0
POPACS 3,2013-055F,2026-05-13T08:07:32.968992,14.55254304,.05549,81.0001,266.9447,175.9665,184.6305,0,U,39270,999,63348,.25723E-3,.10771E-3,0
ZACUBE-1 (TSHEPISOSAT),2013-066B,2026-05-13T21:02:34.446048,15.00914346,.0041751,97.8119,96.0275,8.5716,351.6211,0,U,39417,999,67558,.24041E-3,.3054E-4,0
WNISAT-1,2013-066H,2026-05-13T10:01:21.478944,14.58018141,.0162649,97.7159,285.0504,341.9130,17.6324,0,U,39423,999,66166,.62059E-4,.291E-5,0
TRITON-1,2013-066M,2026-05-13T20:28:31.423872,14.81551104,.0090055,97.8266,44.4418,347.3712,12.5244,0,U,39427,999,66900,.22931E-3,.1872E-4,0
GOMX-1,2013-066Q,2026-05-13T19:07:13.856160,14.69318956,.0128519,97.6514,336.4283,187.3139,172.6197,0,U,39430,999,66486,.16683E-3,.1066E-4,0
CUBEBUG-2 (LO-74),2013-066AA,2026-05-13T10:15:59.679648,14.93493448,.0058866,97.8890,82.2722,141.3076,219.2383,0,U,39440,999,67180,.15075E-3,.1579E-4,0
NEE-02 KRYSAOR,2013-066AB,2026-05-13T06:35:11.158080,14.86483884,.0066091,97.8882,72.7460,182.8707,177.2139,0,U,39441,999,67101,.10977E-3,.951E-5,0
FUNCUBE-1 (AO-73),2013-066AE,2026-05-13T20:18:14.025024,15.09031555,.0035257,97.8259,104.5913,323.3687,36.5131,0,U,39444,999,67448,.33223E-3,.5264E-4,0
UWE-3,2013-066AG,2026-05-13T09:19:01.572096,14.96721930,.0050799,97.8680,89.2422,75.9697,284.7165,0,U,39446,999,67237,.18157E-3,.2066E-4,0
BRITE-CA1 (TORONTO),2014-033L,2026-05-13T14:08:54.362976,14.72628086,.0079243,97.9689,263.1660,28.6389,331.9136,0,U,40020,999,63712,.73067E-4,.435E-5,0
DUCHIFAT-1,2014-033M,2026-05-13T14:27:17.970048,15.58372421,.0005809,98.0506,188.0926,184.6576,175.4625,0,U,40021,999,65035,.76203E-3,.58134E-3,0
NANOSATC-BR1,2014-033Q,2026-05-13T00:56:34.851264,15.30316701,.00019306,98.0756,162.3424,326.7264,33.3853,0,U,40024,999,64860,.37739395E-3,.10985E-3,0
QB50P1,2014-033R,2026-05-13T13:01:28.896384,15.17705167,.0008313,98.0980,142.2743,356.9133,3.2046,0,U,40025,999,64777,.25713E-3,.5111E-4,0
QB50P2,2014-033Y,2026-05-13T18:04:43.316832,15.14700736,.0005792,98.0752,128.5046,299.3582,60.7069,0,U,40032,999,64745,.21848E-3,.3971E-4,0
PERSEUS-M2,2014-033AD,2026-05-13T19:19:08.716800,14.95398215,.0013202,97.9936,83.6525,57.6956,302.5541,0,U,40037,999,64564,.11517E-3,.1213E-4,0
